OBJECT_NAME,OBJECT_ID,EPOCH,MEAN_MOTION,ECCENTRICITY,INCLINATION,RA_OF_ASC_NODE,ARG_OF_PERICENTER,MEAN_ANOMALY,EPHEMERIS_TYPE,CLASSIFICATION_TYPE,NORAD_CAT_ID,ELEMENT_SET_NO,REV_AT_EPOCH,BSTAR,MEAN_MOTION_DOT,MEAN_MOTION_DDOT
MERIDIAN 10,2022-030A,2026-06-05T00:10:17.119776,2.00614992,.6780343,62.6780,142.0991,272.8640,17.6775,0,U,52145,999,3078,0,.217E-5,0
OMNI-L1,2022-033A,2026-06-05T10:28:39.343008,14.82704063,.0004385,97.8390,235.8425,338.0481,22.0544,0,U,52157,999,22571,.29445E-3,.2324E-4,0
ENMAP,2022-033C,2026-06-05T16:49:08.313888,14.74977830,.0001403,97.9791,239.1130,80.4573,279.6795,0,U,52159,999,22496,.59596E-4,.351E-5,0
ARCSAT-1,2022-033E,2026-06-04T05:49:18.938784,15.53290234,.00035768,97.2749,247.3261,231.4725,128.6209,0,U,52161,999,23369,.2369493E-3,.14842E-3,0
GLOBAL-18,2022-034B,2026-06-05T03:59:31.577280,15.45742237,.000357,52.9833,314.0678,215.1127,144.9644,0,U,52196,999,23510,.42226E-3,.20377E-3,0
GAOFEN-3 03,2022-035A,2026-06-05T17:06:35.788608,14.42213265,.0001055,98.4061,165.4600,94.1113,266.0197,0,U,52200,999,21919,.92675E-5,-.13E-6,0
DAQI-1,2022-039A,2026-06-05T16:22:01.926336,14.57670387,.0002597,98.1487,95.7723,309.8148,50.2822,0,U,52257,999,22026,.80796E-4,.323E-5,0
BRO-6,2022-047AE,2026-06-05T17:05:24.370368,15.49744022,.0005803,97.3398,247.5542,115.0329,245.1525,0,U,52422,999,22937,.65057E-3,.36173E-3,0
JILIN-1 GAOFEN 3D27,2022-048B,2026-06-05T17:05:22.250112,15.72717023,.0002615,97.5698,269.6326,99.2711,260.8848,0,U,52444,999,22767,.87804E-3,.119383E-2,0
JILIN-1 GAOFEN 3D28,2022-048C,2026-06-05T17:34:08.109984,15.75351693,.0001875,97.5643,269.7612,143.0865,217.0528,0,U,52445,999,22772,.90179E-3,.137537E-2,0
VIGORIDE-3,2022-057AE,2026-06-05T13:17:50.466912,15.27153138,.0008893,97.6599,296.2224,156.7838,203.3804,0,U,52760,999,22338,.23974E-3,.6311E-4,0
ION SCV-006,2022-057AF,2026-06-05T16:51:27.637344,15.44996961,.0018042,97.6095,304.7770,152.6408,207.5794,0,U,52761,999,22434,.30182E-3,.14227E-3,0
SHERPA-AC1,2022-057AH,2026-06-05T16:01:29.834688,15.36097315,.000876,97.6677,305.4161,128.2503,231.9529,0,U,52763,999,22393,.23896E-3,.8326E-4,0
OMNI-L2,2022-057AR,2026-06-05T10:29:03.851232,14.81338531,.0006864,97.4719,219.5847,17.0910,343.0534,0,U,52771,999,21865,.20817E-3,.1579E-4,0
STEP CUBE LAB-II,2022-065D,2026-06-05T15:33:20.903904,14.63285158,.000986,98.2220,300.5860,64.3767,295.8453,0,U,52897,999,20981,.20639E-3,.1017E-4,0
RANDEV,2022-065E,2026-06-05T15:39:17.227872,14.63671955,.0009182,98.2203,300.9372,65.0418,295.1737,0,U,52898,999,20956,.21284E-3,.106E-4,0
SNUGLITE-II,2022-065F,2026-06-05T08:18:53.877888,14.64324999,.0008604,98.2190,301.1992,66.1364,294.0739,0,U,52899,999,20926,.2154E-3,.1089E-4,0
MIMAN,2022-065G,2026-06-05T08:14:59.663904,14.61830654,.0008782,98.2247,298.8869,67.7423,292.4709,0,U,52900,999,20871,.13478E-3,.626E-5,0
STARLINK-4362,2022-077A,2026-06-05T12:03:35.637984,15.05678406,.0002361,97.3985,335.9656,86.0060,274.1437,0,U,53043,999,21412,-.42987E-3,-.626E-4,0
LARES-2,2022-080A,2026-06-03T13:15:00.088704,6.38965171,.00053798,70.1655,310.0052,337.8766,22.1504,0,U,53105,999,9079,0,-.12E-6,0
GREENCUBE (IO-117),2022-080E,2026-06-01T11:09:37.753056,6.42583280,.00088692,70.1435,303.7143,293.3663,66.6064,0,U,53109,999,9105,0,-.3E-7,0
STARLINK-4410,2022-084R,2026-06-05T18:00:02.998944,15.26834588,.0001331,97.6001,217.6028,85.8172,236.0605,0,U,53204,999,582,.6599E-3,.17348E-3,0
COSMOS 2558,2022-089A,2026-06-05T16:52:15.694752,15.72813324,.0000743,97.2256,260.3198,169.1096,191.0184,0,U,53323,999,21602,.80763E-3,.110106E-2,0
TECMS,2022-090A,2026-06-05T17:08:58.759872,15.21326235,.0002292,97.3137,225.1480,220.4310,139.6756,0,U,53346,999,21306,.18215E-3,.401E-4,0
DONGPO 02,2022-098J,2026-06-05T17:32:12.878304,15.72350327,.0001174,97.5515,286.9479,327.5358,32.5833,0,U,53452,999,21299,.79278E-3,.10594E-2,0
DONGPO 01,2022-098K,2026-06-05T16:57:03.698784,15.70401807,.000096,97.5575,287.4757,245.1512,114.9650,0,U,53453,999,21295,.76729E-3,.9438E-3,0
STARLINK-4400,2022-099D,2026-06-05T14:45:04.095072,15.05695774,.0000125,97.4021,276.1508,274.2745,85.8468,0,U,53468,999,20920,-.36133E-3,-.5274E-4,0
STARLINK-4621,2022-105AE,2026-06-04T05:19:24.933504,15.05627826,.00024804,97.4061,34.8288,59.2736,300.8735,0,U,53676,999,20625,.78463932E-4,.1074E-4,0
SHERPA-LTC2,2022-107BG,2026-06-05T15:00:31.777056,14.69555227,.0395183,53.2351,269.2709,193.6523,165.3513,0,U,53754,999,20084,.41379E-3,.8247E-4,0
CENTISPACE-1 S3,2022-108A,2026-06-05T17:11:37.762656,14.61237808,.0008665,53.5322,102.6905,322.1049,37.9316,0,U,53757,999,19985,.12988E-3,.456E-5,0
