MERIDIAN 10             
1 52145U 22030A   26156.00714259  .00000217  00000+0  00000+0 0  9990
2 52145  62.6780 142.0991 6780343 272.8640  17.6775  2.00614992 30788
OMNI-L1                 
1 52157U 22033A   26156.43656647  .00002324  00000+0  29445-3 0  9998
2 52157  97.8390 235.8425 0004385 338.0481  22.0544 14.82704063225713
ENMAP                   
1 52159U 22033C   26156.70079067  .00000351  00000+0  59596-4 0  9994
2 52159  97.9791 239.1130 0001403  80.4573 279.6795 14.74977830224968
ARCSAT-1                
1 52161U 22033E   26155.24258031  .00014842  00000+0  23695-3 0  9995
2 52161  97.2749 247.3261 0003576 231.4725 128.6209 15.53290234233690
GLOBAL-18               
1 52196U 22034B   26156.16633770  .00020377  00000+0  42226-3 0  9994
2 52196  52.9833 314.0678 0003570 215.1127 144.9644 15.45742237235101
GAOFEN-3 03             
1 52200U 22035A   26156.71291422 -.00000013  00000+0  92675-5 0  9997
2 52200  98.4061 165.4600 0001055  94.1113 266.0197 14.42213265219194
DAQI-1                  
1 52257U 22039A   26156.68196674  .00000323  00000+0  80796-4 0  9995
2 52257  98.1487  95.7723 0002597 309.8148  50.2822 14.57670387220268
BRO-6                   
1 52422U 22047AE  26156.71208762  .00036173  00000+0  65057-3 0  9998
2 52422  97.3398 247.5542 0005803 115.0329 245.1525 15.49744022229377
JILIN-1 GAOFEN 3D27     
1 52444U 22048B   26156.71206308  .00119383  00000+0  87804-3 0  9996
2 52444  97.5698 269.6326 0002615  99.2711 260.8848 15.72717023227677
JILIN-1 GAOFEN 3D28     
1 52445U 22048C   26156.73203831  .00137537  00000+0  90179-3 0  9997
2 52445  97.5643 269.7612 0001875 143.0865 217.0528 15.75351693227727
VIGORIDE-3              
1 52760U 22057AE  26156.55405633  .00006311  00000+0  23974-3 0  9995
2 52760  97.6599 296.2224 0008893 156.7838 203.3804 15.27153138223384
ION SCV-006             
1 52761U 22057AF  26156.70240321  .00014227  00000+0  30182-3 0  9998
2 52761  97.6095 304.7770 0018042 152.6408 207.5794 15.44996961224341
SHERPA-AC1              
1 52763U 22057AH  26156.66770642  .00008326  00000+0  23896-3 0  9996
2 52763  97.6677 305.4161 0008760 128.2503 231.9529 15.36097315223939
OMNI-L2                 
1 52771U 22057AR  26156.43685013  .00001579  00000+0  20817-3 0  9990
2 52771  97.4719 219.5847 0006864  17.0910 343.0534 14.81338531218650
STEP CUBE LAB-II        
1 52897U 22065D   26156.64815861  .00001017  00000+0  20639-3 0  9996
2 52897  98.2220 300.5860 0009860  64.3767 295.8453 14.63285158209813
RANDEV                  
1 52898U 22065E   26156.65228273  .00001060  00000+0  21284-3 0  9998
2 52898  98.2203 300.9372 0009182  65.0418 295.1737 14.63671955209569
SNUGLITE-II             
1 52899U 22065F   26156.34645692  .00001089  00000+0  21540-3 0  9999
2 52899  98.2190 301.1992 0008604  66.1364 294.0739 14.64324999209267
MIMAN                   
1 52900U 22065G   26156.34374611  .00000626  00000+0  13478-3 0  9999
2 52900  98.2247 298.8869 0008782  67.7423 292.4709 14.61830654208713
STARLINK-4362           
1 53043U 22077A   26156.50249581 -.00006260  00000+0 -42987-3 0  9995
2 53043  97.3985 335.9656 0002361  86.0060 274.1437 15.05678406214127
LARES-2                 
1 53105U 22080A   26154.55208436 -.00000012  00000+0  00000+0 0  9999
2 53105  70.1655 310.0052 0005379 337.8766  22.1504  6.38965171 90790
GREENCUBE (IO-117)      
1 53109U 22080E   26152.46502029 -.00000003  00000+0  00000+0 0  9996
2 53109  70.1435 303.7143 0008869 293.3663  66.6064  6.42583280 91055
STARLINK-4410           
1 53204U 22084R   26156.75003471  .00017348  00000+0  65990-3 0  9991
2 53204  97.6001 217.6028 0001331  85.8172 236.0605 15.26834588  5821
COSMOS 2558             
1 53323U 22089A   26156.70295943  .00110106  00000+0  80763-3 0  9991
2 53323  97.2256 260.3198 0000743 169.1096 191.0184 15.72813324216025
TECMS                   
1 53346U 22090A   26156.71456898  .00004010  00000+0  18215-3 0  9996
2 53346  97.3137 225.1480 0002292 220.4310 139.6756 15.21326235213061
DONGPO 02               
1 53452U 22098J   26156.73070461  .00105940  00000+0  79278-3 0  9992
2 53452  97.5515 286.9479 0001174 327.5358  32.5833 15.72350327212996
DONGPO 01               
1 53453U 22098K   26156.70629281  .00094380  00000+0  76729-3 0  9993
2 53453  97.5575 287.4757 0000960 245.1512 114.9650 15.70401807212953
STARLINK-4400           
1 53468U 22099D   26156.61463073 -.00005274  00000+0 -36133-3 0  9996
2 53468  97.4021 276.1508 0000125 274.2745  85.8468 15.05695774209200
STARLINK-4621           
1 53676U 22105AE  26155.22181636  .00001074  00000+0  78464-4 0  9999
2 53676  97.4061  34.8288 0002480  59.2736 300.8735 15.05627826206258
SHERPA-LTC2             
1 53754U 22107BG  26156.62536779  .00008247  00000+0  41379-3 0  9998
2 53754  53.2351 269.2709 0395183 193.6523 165.3513 14.69555227200842
CENTISPACE-1 S3         
1 53757U 22108A   26156.71640929  .00000456  00000+0  12988-3 0  9993
2 53757  53.5322 102.6905 0008665 322.1049  37.9316 14.61237808199859
